ATLAS CENTAUR R/B       
1 06155U 72065B   26038.28770270  .00001842  00000+0  25445-3 0  9996
2 06155  35.0010 123.9057 0033127 114.6511 245.7645 14.77597814836766
SL-8 R/B                
1 08459U 75112B   26039.07931646  .00000222  00000+0  81688-4 0  9998
2 08459  74.0592  73.3857 0015444 176.9555 183.1696 14.38188882627611
SL-3 R/B                
1 10114U 77057B   26039.12131075  .00014307  00000+0  30873-3 0  9991
2 10114  97.5735 209.7686 0008056  37.0517 323.1286 15.44632879663767
SEASAT 1                
1 10967U 78064A   26039.02850395  .00000380  00000+0  14463-3 0  9991
2 10967 108.0163  63.2516 0001582 291.2660  68.8316 14.46135920502227
SL-14 R/B               
1 11267U 79011B   26039.20345500  .00000798  00000+0  76255-4 0  9996
2 11267  82.5254 124.5484 0016779 151.4732 208.7410 14.91871578524381
SL-8 R/B                
1 11574U 79089B   26038.71270478  .00000404  00000+0  13011-3 0  9992
2 11574  74.0698 146.5321 0016527 322.9540  37.0474 14.42331914431782
SL-14 R/B               
1 11672U 80005B   26038.86153104  .00000954  00000+0  94162-4 0  9990
2 11672  82.5173 335.5214 0014112 262.5976  97.3639 14.90890495472047
SL-8 R/B                
1 12139U 81003B   26039.18789597  .00020423  00000+0  54164-3 0  9995
2 12139  82.9391 317.2793 0263329 281.6720  75.5071 15.09903790310229
SL-3 R/B                
1 12465U 81046B   26039.18572142  .00014477  00000+0  34567-3 0  9997
2 12465  81.2341 325.1423 0020682 118.8036 241.5287 15.41165202433886
SL-3 R/B                
1 12904U 81103B   26039.10614541  .00005915  00000+0  26488-3 0  9991
2 12904  81.1564 248.1326 0013752  28.5741 331.6241 15.21017608968738
SL-3 R/B                
1 13068U 82013B   26039.12694241  .00005521  00000+0  24145-3 0  9992
2 13068  81.1742 195.4055 0021730 280.1133  79.7647 15.21684234399853
SL-3 R/B                
1 13154U 82039B   26039.10230589  .00002567  00000+0  15530-3 0  9990
2 13154  81.1614 250.0652 0030066  61.2869 299.1372 15.09916041377178
