CCSDS_OMM_VERS = 2.0
CREATION_DATE  = 
ORIGINATOR     = 

OBJECT_NAME    = ATLAS CENTAUR R/B
OBJECT_ID      = 1972-065B
CENTER_NAME    = EARTH
REF_FRAME      = TEME
TIME_SYSTEM    = UTC
MEAN_ELEMENT_THEORY = SGP/SGP4

EPOCH          = 2026-02-07T06:54:17.513280
MEAN_MOTION    = 14.77597814
ECCENTRICITY   = .0033127
INCLINATION    = 35.0010
RA_OF_ASC_NODE = 123.9057
ARG_OF_PERICENTER = 114.6511
MEAN_ANOMALY   = 245.7645

EPHEMERIS_TYPE = 0
CLASSIFICATION_TYPE = U
NORAD_CAT_ID   = 6155
ELEMENT_SET_NO = 999
REV_AT_EPOCH   = 83676
BSTAR          = .25445E-3
MEAN_MOTION_DOT = .1842E-4
MEAN_MOTION_DDOT = 0

CCSDS_OMM_VERS = 2.0
CREATION_DATE  = 
ORIGINATOR     = 

OBJECT_NAME    = SL-8 R/B
OBJECT_ID      = 1975-112B
CENTER_NAME    = EARTH
REF_FRAME      = TEME
TIME_SYSTEM    = UTC
MEAN_ELEMENT_THEORY = SGP/SGP4

EPOCH          = 2026-02-08T01:54:12.942144
MEAN_MOTION    = 14.38188882
ECCENTRICITY   = .0015444
INCLINATION    = 74.0592
RA_OF_ASC_NODE = 73.3857
ARG_OF_PERICENTER = 176.9555
MEAN_ANOMALY   = 183.1696

EPHEMERIS_TYPE = 0
CLASSIFICATION_TYPE = U
NORAD_CAT_ID   = 8459
ELEMENT_SET_NO = 999
REV_AT_EPOCH   = 62761
BSTAR          = .81688E-4
MEAN_MOTION_DOT = .222E-5
MEAN_MOTION_DDOT = 0

CCSDS_OMM_VERS = 2.0
CREATION_DATE  = 
ORIGINATOR     = 

OBJECT_NAME    = SL-3 R/B
OBJECT_ID      = 1977-057B
CENTER_NAME    = EARTH
REF_FRAME      = TEME
TIME_SYSTEM    = UTC
MEAN_ELEMENT_THEORY = SGP/SGP4

EPOCH          = 2026-02-08T02:54:41.248800
MEAN_MOTION    = 15.44632879
ECCENTRICITY   = .0008056
INCLINATION    = 97.5735
RA_OF_ASC_NODE = 209.7686
ARG_OF_PERICENTER = 37.0517
MEAN_ANOMALY   = 323.1286

EPHEMERIS_TYPE = 0
CLASSIFICATION_TYPE = U
NORAD_CAT_ID   = 10114
ELEMENT_SET_NO = 999
REV_AT_EPOCH   = 66376
BSTAR          = .30873E-3
MEAN_MOTION_DOT = .14307E-3
MEAN_MOTION_DDOT = 0

CCSDS_OMM_VERS = 2.0
CREATION_DATE  = 
ORIGINATOR     = 

OBJECT_NAME    = SEASAT 1
OBJECT_ID      = 1978-064A
CENTER_NAME    = EARTH
REF_FRAME      = TEME
TIME_SYSTEM    = UTC
MEAN_ELEMENT_THEORY = SGP/SGP4

EPOCH          = 2026-02-08T00:41:02.741280
MEAN_MOTION    = 14.46135920
ECCENTRICITY   = .0001582
INCLINATION    = 108.0163
RA_OF_ASC_NODE = 63.2516
ARG_OF_PERICENTER = 291.2660
MEAN_ANOMALY   = 68.8316

EPHEMERIS_TYPE = 0
CLASSIFICATION_TYPE = U
NORAD_CAT_ID   = 10967
ELEMENT_SET_NO = 999
REV_AT_EPOCH   = 50222
BSTAR          = .14463E-3
MEAN_MOTION_DOT = .38E-5
MEAN_MOTION_DDOT = 0

CCSDS_OMM_VERS = 2.0
CREATION_DATE  = 
ORIGINATOR     = 

OBJECT_NAME    = SL-14 R/B
OBJECT_ID      = 1979-011B
CENTER_NAME    = EARTH
REF_FRAME      = TEME
TIME_SYSTEM    = UTC
MEAN_ELEMENT_THEORY = SGP/SGP4

EPOCH          = 2026-02-08T04:52:58.512000
MEAN_MOTION    = 14.91871578
ECCENTRICITY   = .0016779
INCLINATION    = 82.5254
RA_OF_ASC_NODE = 124.5484
ARG_OF_PERICENTER = 151.4732
MEAN_ANOMALY   = 208.7410

EPHEMERIS_TYPE = 0
CLASSIFICATION_TYPE = U
NORAD_CAT_ID   = 11267
ELEMENT_SET_NO = 999
REV_AT_EPOCH   = 52438
BSTAR          = .76255E-4
MEAN_MOTION_DOT = .798E-5
MEAN_MOTION_DDOT = 0

CCSDS_OMM_VERS = 2.0
CREATION_DATE  = 
ORIGINATOR     = 

OBJECT_NAME    = SL-8 R/B
OBJECT_ID      = 1979-089B
CENTER_NAME    = EARTH
REF_FRAME      = TEME
TIME_SYSTEM    = UTC
MEAN_ELEMENT_THEORY = SGP/SGP4

EPOCH          = 2026-02-07T17:06:17.692992
MEAN_MOTION    = 14.42331914
ECCENTRICITY   = .00165275
INCLINATION    = 74.0698
RA_OF_ASC_NODE = 146.5321
ARG_OF_PERICENTER = 322.9540
MEAN_ANOMALY   = 37.0474

EPHEMERIS_TYPE = 0
CLASSIFICATION_TYPE = U
NORAD_CAT_ID   = 11574
ELEMENT_SET_NO = 999
REV_AT_EPOCH   = 43178
BSTAR          = .13010972E-3
MEAN_MOTION_DOT = .404E-5
MEAN_MOTION_DDOT = 0

CCSDS_OMM_VERS = 2.0
CREATION_DATE  = 
ORIGINATOR     = 

OBJECT_NAME    = SL-14 R/B
OBJECT_ID      = 1980-005B
CENTER_NAME    = EARTH
REF_FRAME      = TEME
TIME_SYSTEM    = UTC
MEAN_ELEMENT_THEORY = SGP/SGP4

EPOCH          = 2026-02-07T20:40:36.281856
MEAN_MOTION    = 14.90890495
ECCENTRICITY   = .00141124
INCLINATION    = 82.5173
RA_OF_ASC_NODE = 335.5214
ARG_OF_PERICENTER = 262.5976
MEAN_ANOMALY   = 97.3639

EPHEMERIS_TYPE = 0
CLASSIFICATION_TYPE = U
NORAD_CAT_ID   = 11672
ELEMENT_SET_NO = 999
REV_AT_EPOCH   = 47204
BSTAR          = .94162194E-4
MEAN_MOTION_DOT = .954E-5
MEAN_MOTION_DDOT = 0

CCSDS_OMM_VERS = 2.0
CREATION_DATE  = 
ORIGINATOR     = 

OBJECT_NAME    = SL-8 R/B
OBJECT_ID      = 1981-003B
CENTER_NAME    = EARTH
REF_FRAME      = TEME
TIME_SYSTEM    = UTC
MEAN_ELEMENT_THEORY = SGP/SGP4

EPOCH          = 2026-02-08T04:30:34.211808
MEAN_MOTION    = 15.09903790
ECCENTRICITY   = .0263329
INCLINATION    = 82.9391
RA_OF_ASC_NODE = 317.2793
ARG_OF_PERICENTER = 281.6720
MEAN_ANOMALY   = 75.5071

EPHEMERIS_TYPE = 0
CLASSIFICATION_TYPE = U
NORAD_CAT_ID   = 12139
ELEMENT_SET_NO = 999
REV_AT_EPOCH   = 31022
BSTAR          = .54164E-3
MEAN_MOTION_DOT = .20423E-3
MEAN_MOTION_DDOT = 0

CCSDS_OMM_VERS = 2.0
CREATION_DATE  = 
ORIGINATOR     = 

OBJECT_NAME    = SL-3 R/B
OBJECT_ID      = 1981-046B
CENTER_NAME    = EARTH
REF_FRAME      = TEME
TIME_SYSTEM    = UTC
MEAN_ELEMENT_THEORY = SGP/SGP4

EPOCH          = 2026-02-08T04:27:26.330688
MEAN_MOTION    = 15.41165202
ECCENTRICITY   = .0020682
INCLINATION    = 81.2341
RA_OF_ASC_NODE = 325.1423
ARG_OF_PERICENTER = 118.8036
MEAN_ANOMALY   = 241.5287

EPHEMERIS_TYPE = 0
CLASSIFICATION_TYPE = U
NORAD_CAT_ID   = 12465
ELEMENT_SET_NO = 999
REV_AT_EPOCH   = 43388
BSTAR          = .34567E-3
MEAN_MOTION_DOT = .14477E-3
MEAN_MOTION_DDOT = 0

CCSDS_OMM_VERS = 2.0
CREATION_DATE  = 
ORIGINATOR     = 

OBJECT_NAME    = SL-3 R/B
OBJECT_ID      = 1981-103B
CENTER_NAME    = EARTH
REF_FRAME      = TEME
TIME_SYSTEM    = UTC
MEAN_ELEMENT_THEORY = SGP/SGP4

EPOCH          = 2026-02-08T02:32:50.963424
MEAN_MOTION    = 15.21017608
ECCENTRICITY   = .0013752
INCLINATION    = 81.1564
RA_OF_ASC_NODE = 248.1326
ARG_OF_PERICENTER = 28.5741
MEAN_ANOMALY   = 331.6241

EPHEMERIS_TYPE = 0
CLASSIFICATION_TYPE = U
NORAD_CAT_ID   = 12904
ELEMENT_SET_NO = 999
REV_AT_EPOCH   = 96873
BSTAR          = .26488E-3
MEAN_MOTION_DOT = .5915E-4
MEAN_MOTION_DDOT = 0

CCSDS_OMM_VERS = 2.0
CREATION_DATE  = 
ORIGINATOR     = 

OBJECT_NAME    = SL-3 R/B
OBJECT_ID      = 1982-013B
CENTER_NAME    = EARTH
REF_FRAME      = TEME
TIME_SYSTEM    = UTC
MEAN_ELEMENT_THEORY = SGP/SGP4

EPOCH          = 2026-02-08T03:02:47.824224
MEAN_MOTION    = 15.21684234
ECCENTRICITY   = .002173
INCLINATION    = 81.1742
RA_OF_ASC_NODE = 195.4055
ARG_OF_PERICENTER = 280.1133
MEAN_ANOMALY   = 79.7647

EPHEMERIS_TYPE = 0
CLASSIFICATION_TYPE = U
NORAD_CAT_ID   = 13068
ELEMENT_SET_NO = 999
REV_AT_EPOCH   = 39985
BSTAR          = .24145E-3
MEAN_MOTION_DOT = .5521E-4
MEAN_MOTION_DDOT = 0

CCSDS_OMM_VERS = 2.0
CREATION_DATE  = 
ORIGINATOR     = 

OBJECT_NAME    = SL-3 R/B
OBJECT_ID      = 1982-039B
CENTER_NAME    = EARTH
REF_FRAME      = TEME
TIME_SYSTEM    = UTC
MEAN_ELEMENT_THEORY = SGP/SGP4

EPOCH          = 2026-02-08T02:27:19.228896
MEAN_MOTION    = 15.09916041
ECCENTRICITY   = .0030066
INCLINATION    = 81.1614
RA_OF_ASC_NODE = 250.0652
ARG_OF_PERICENTER = 61.2869
MEAN_ANOMALY   = 299.1372

EPHEMERIS_TYPE = 0
CLASSIFICATION_TYPE = U
NORAD_CAT_ID   = 13154
ELEMENT_SET_NO = 999
REV_AT_EPOCH   = 37717
BSTAR          = .1553E-3
MEAN_MOTION_DOT = .2567E-4
MEAN_MOTION_DDOT = 0

